IRIDIUM 171             
1 43929U 19002H   24324.68734834  .00000542  00000+0  18659-3 0  9999
2 43929  86.4003 233.8548 0001908  76.6825 283.4583 14.34219631306618
IRIDIUM 170             
1 43930U 19002J   24324.83804913  .00002309  00000+0  36202-3 0  9991
2 43930  86.6124 233.5838 0002183  84.8723 275.2743 14.72276917314752
IRIDIUM 167             
1 43931U 19002K   24325.16938532  .00000565  00000+0  19470-3 0  9994
2 43931  86.3996 233.4282 0002179  73.6753 286.4682 14.34219955306689
IRIDIUM 181             
1 56726U 23068S   24324.93073491  .00000430  00000+0  12113-3 0  9993
2 56726  86.8589 294.8340 0002113  81.2975 278.8466 14.43593864 79601
IRIDIUM 177             
1 56727U 23068T   24325.18220020  .00002936  00000+0  38297-3 0  9998
2 56727  86.1989 241.2655 0002739  71.2618 288.8900 14.80223181 81454
IRIDIUM 174             
1 56728U 23068U   24325.24433113  .00002907  00000+0  37901-3 0  9994
2 56728  86.1993 241.3521 0002377  87.9411 272.2083 14.80234809 81465
IRIDIUM 178             
1 56729U 23068V   24325.23890668  .00002809  00000+0  36606-3 0  9998
2 56729  86.5765 266.2088 0002667  74.6729 285.4787 14.80244515 81460
IRIDIUM 179             
1 56730U 23068W   24325.43627566  .00002822  00000+0  36826-3 0  9996
2 56730  86.6768 272.2292 0002832  85.8918 274.2627 14.80195580 81497
